[{"OBJECT_NAME":"STARLINK-3509","OBJECT_ID":"2022-016Z","EPOCH":"2026-03-09T23:41:17.995776","MEAN_MOTION":15.08832496,"ECCENTRICITY":0.00013187,"INCLINATION":53.2187,"RA_OF_ASC_NODE":317.7887,"ARG_OF_PERICENTER":97.3326,"MEAN_ANOMALY":262.7816,"EPHEMERIS_TYPE":0,"CLASSIFICATION_TYPE":"U","NORAD_CAT_ID":51737,"ELEMENT_SET_NO":999,"REV_AT_EPOCH":22360,"BSTAR":-5.2405392e-5,"MEAN_MOTION_DOT":-1.122e-5,"MEAN_MOTION_DDOT":0},{"OBJECT_NAME":"FENGYUN 1C DEB","OBJECT_ID":"1999-025CDM","EPOCH":"2026-03-09T06:24:55.905408","MEAN_MOTION":15.0430028,"ECCENTRICITY":0.00202824,"INCLINATION":99.0326,"RA_OF_ASC_NODE":346.4521,"ARG_OF_PERICENTER":26.5298,"MEAN_ANOMALY":133.8427,"EPHEMERIS_TYPE":0,"CLASSIFICATION_TYPE":"U","NORAD_CAT_ID":31714,"ELEMENT_SET_NO":999,"REV_AT_EPOCH":97342,"BSTAR":0.0098433176,"MEAN_MOTION_DOT":0.00140271,"MEAN_MOTION_DDOT":0}]
